STARLINK-3931           
1 52548U 22051R   25144.78561152  .00000666  00000+0  59920-4 0  9991
2 52548  53.2179 346.0613 0001331  88.6904 271.4241 15.08838495167836
STARLINK-3935           
1 52549U 22051S   25144.93650129  .00003822  00000+0  25808-3 0  9996
2 52549  53.2182 345.3851 0001197  90.7836 269.3293 15.08836954167926
STARLINK-3965           
1 52550U 22051T   25144.79297887  .00002163  00000+0  15396-3 0  9998
2 52550  53.2180 346.0305 0001215  96.8618 263.2512 15.08834072167830
STARLINK-3969           
1 52551U 22051U   25144.93281728  .00000762  00000+0  65983-4 0  9993
2 52551  53.2194 345.4025 0001439  97.5447 262.5709 15.08838682167925
STARLINK-3966           
1 52552U 22051V   25144.92915609  .00000375  00000+0  41632-4 0  9990
2 52552  53.2187 345.5734 0000483  49.7827 310.3208 15.08834717167858
STARLINK-3858           
1 52553U 22051W   25144.96220960  .00000775  00000+0  66760-4 0  9997
2 52553  53.2178 344.9256 0001316  90.8913 269.2230 15.08843781167937
STARLINK-3770           
1 52554U 22051X   25144.83483666  .00000385  00000+0  42281-4 0  9997
2 52554  53.2175 350.8376 0001239  88.1643 271.9491 15.08840018167836
STARLINK-3949           
1 52555U 22051Y   25144.80894348  .00186090  00000+0  18951-2 0  9991
2 52555  53.2215 288.1847 0002380 244.9116 115.1653 15.64028435168667
STARLINK-3763           
1 52556U 22051Z   25144.69324228  .00165335  00000+0  44105-2 0  9993
2 52556  53.1901 300.8936 0000854  90.9201 269.1901 15.37032198168463
STARLINK-3943           
1 52557U 22051AA  25144.84449656 -.00000279  00000+0  56162-6 0  9990
2 52557  53.2180 345.7973 0001327  90.8803 269.2341 15.08836908167845
STARLINK-3954           
1 52558U 22051AB  25145.25144359  .00800410  40110-3  58727-3 0  9999
2 52558  53.2095 315.0822 0006510 298.6626 239.5431 16.15051108168362
STARLINK-3953           
1 52559U 22051AC  25144.79023667 -.00000315  00000+0 -16817-5 0  9990
2 52559  53.2174 336.2243 0001283  88.6076 271.5064 15.08839887167963
STARLINK-3956           
1 52560U 22051AD  25144.77549777  .00001727  00000+0  12657-3 0  9997
2 52560  53.2175 336.1068 0001174  90.2190 269.8937 15.08831785167963
STARLINK-3955           
1 52561U 22051AE  25144.95627759  .00002395  00000+0  16845-3 0  9990
2 52561  53.2180 350.2934 0001213  92.7715 267.3416 15.08853035167858
STARLINK-3957           
1 52562U 22051AF  25144.83437856  .00000552  00000+0  52765-4 0  9990
2 52562  53.2195 335.8437 0001330  94.1189 265.9955 15.08835084167972
STARLINK-3942           
1 52563U 22051AG  25144.76124090 -.00000028  00000+0  16339-4 0  9992
2 52563  53.2187 351.1709 0001592  87.7589 272.3585 15.08832733167754
STARLINK-3959           
1 52564U 22051AH  25144.95355549  .00000662  00000+0  59667-4 0  9993
2 52564  53.2186 350.3167 0001416  88.2504 271.8650 15.08836791167857
STARLINK-3911           
1 52565U 22051AJ  25144.90429509  .00000241  00000+0  33223-4 0  9990
2 52565  53.2183 335.5293 0001277  96.2377 263.8760 15.08838747167982
STARLINK-3938           
1 52566U 22051AK  25144.79803588 -.00000006  00000+0  17682-4 0  9992
2 52566  53.2185 351.0059 0001336  89.4672 270.6473 15.08837165167762
STARLINK-3929           
1 52567U 22051AL  25144.96316724  .00000376  00000+0  41676-4 0  9992
2 52567  53.2178 335.2654 0001317  81.3753 278.7388 15.08853539168061
STARLINK-3930           
1 52568U 22051AM  25144.75341872 -.00000204  00000+0  52861-5 0  9992
2 52568  53.2183 336.2050 0001319  93.0386 267.0757 15.08831771167966
STARLINK-3927           
1 52569U 22051AN  25144.82701857 -.00000372  00000+0 -52579-5 0  9997
2 52569  53.2184 335.8773 0001335  94.4767 265.6378 15.08835340167971
STARLINK-3901           
1 52574U 22051AQ  25144.82333602  .00000483  00000+0  48461-4 0  9997
2 52574  53.2182 335.8910 0001265  91.4745 268.6392 15.08837764167974
STARLINK-3920           
1 52575U 22051AR  25144.94477571 -.00000465  00000+0 -11138-4 0  9998
2 52575  53.2186 335.3450 0001293  89.9848 270.1292 15.08836336167993
STARLINK-3932           
1 52576U 22051AS  25144.93837080 -.00000347  00000+0 -36959-5 0  9991
2 52576  53.2178 335.3734 0001364  92.8116 267.3032 15.08841340168060
STARLINK-3836           
1 52577U 22051AT  25144.79067858 -.00001524  00000+0 -77655-4 0  9999
2 52577  53.2186 351.0392 0001405  96.8514 263.2638 15.08844364167769
STARLINK-3833           
1 52578U 22051AU  25144.79435714  .00000239  00000+0  33100-4 0  9997
2 52578  53.2181 351.0212 0001273  87.9366 272.1772 15.08834802167769
STARLINK-3893           
1 52579U 22051AV  25144.98203223  .00000118  00000+0  25529-4 0  9999
2 52579  53.2187 350.1785 0001271  91.3272 268.7866 15.08840135167866
STARLINK-3919           
1 52580U 22051AW  25144.98667518  .00000258  00000+0  34326-4 0  9992
2 52580  53.2188 350.1677 0001101  92.6454 267.4665 15.08832797167865
STARLINK-3915           
1 52581U 22051AX  25144.93371762  .00001497  00000+0  11208-3 0  9990
2 52581  53.2180 335.3916 0001410  99.9736 260.1415 15.08854282167995
