OBJECT_NAME,OBJECT_ID,EPOCH,MEAN_MOTION,ECCENTRICITY,INCLINATION,RA_OF_ASC_NODE,ARG_OF_PERICENTER,MEAN_ANOMALY,EPHEMERIS_TYPE,CLASSIFICATION_TYPE,NORAD_CAT_ID,ELEMENT_SET_NO,REV_AT_EPOCH,BSTAR,MEAN_MOTION_DOT,MEAN_MOTION_DDOT
STARLINK-3931,2022-051R,2025-05-24T18:51:16.835328,15.08838495,.0001331,53.2179,346.0613,88.6904,271.4241,0,U,52548,999,16783,.5992E-4,.666E-5,0
STARLINK-3935,2022-051S,2025-05-24T22:28:33.711456,15.08836954,.0001197,53.2182,345.3851,90.7836,269.3293,0,U,52549,999,16792,.25808E-3,.3822E-4,0
STARLINK-3965,2022-051T,2025-05-24T19:01:53.374368,15.08834072,.0001215,53.2180,346.0305,96.8618,263.2512,0,U,52550,999,16783,.15396E-3,.2163E-4,0
STARLINK-3969,2022-051U,2025-05-24T22:23:15.412992,15.08838682,.0001439,53.2194,345.4025,97.5447,262.5709,0,U,52551,999,16792,.65983E-4,.762E-5,0
STARLINK-3966,2022-051V,2025-05-24T22:17:59.086176,15.08834717,.0000483,53.2187,345.5734,49.7827,310.3208,0,U,52552,999,16785,.41632E-4,.375E-5,0
STARLINK-3858,2022-051W,2025-05-24T23:05:34.909440,15.08843781,.0001316,53.2178,344.9256,90.8913,269.2230,0,U,52553,999,16793,.6676E-4,.775E-5,0
STARLINK-3770,2022-051X,2025-05-24T20:02:09.887424,15.08840018,.0001239,53.2175,350.8376,88.1643,271.9491,0,U,52554,999,16783,.42281E-4,.385E-5,0
STARLINK-3949,2022-051Y,2025-05-24T19:24:52.716672,15.64028435,.000238,53.2215,288.1847,244.9116,115.1653,0,U,52555,999,16866,.18951E-2,.18609E-2,0
STARLINK-3763,2022-051Z,2025-05-24T16:38:16.132992,15.37032198,.0000854,53.1901,300.8936,90.9201,269.1901,0,U,52556,999,16846,.44105E-2,.165335E-2,0
STARLINK-3943,2022-051AA,2025-05-24T20:16:04.502784,15.08836908,.0001327,53.2180,345.7973,90.8803,269.2341,0,U,52557,999,16784,.56162E-6,-.279E-5,0
STARLINK-3954,2022-051AB,2025-05-25T06:02:04.726176,16.15051108,.000651,53.2095,315.0822,298.6626,239.5431,0,U,52558,999,16836,.58727E-3,.80041E-2,.4011E-3
STARLINK-3953,2022-051AC,2025-05-24T18:57:56.448288,15.08839887,.0001283,53.2174,336.2243,88.6076,271.5064,0,U,52559,999,16796,-.16817E-5,-.315E-5,0
STARLINK-3956,2022-051AD,2025-05-24T18:36:43.007328,15.08831785,.0001174,53.2175,336.1068,90.2190,269.8937,0,U,52560,999,16796,.12657E-3,.1727E-4,0
STARLINK-3955,2022-051AE,2025-05-24T22:57:02.383776,15.08853035,.0001213,53.2180,350.2934,92.7715,267.3416,0,U,52561,999,16785,.16845E-3,.2395E-4,0
STARLINK-3957,2022-051AF,2025-05-24T20:01:30.307584,15.08835084,.000133,53.2195,335.8437,94.1189,265.9955,0,U,52562,999,16797,.52765E-4,.552E-5,0
STARLINK-3942,2022-051AG,2025-05-24T18:16:11.213760,15.08832733,.0001592,53.2187,351.1709,87.7589,272.3585,0,U,52563,999,16775,.16339E-4,-.28E-6,0
STARLINK-3959,2022-051AH,2025-05-24T22:53:07.194336,15.08836791,.0001416,53.2186,350.3167,88.2504,271.8650,0,U,52564,999,16785,.59667E-4,.662E-5,0
STARLINK-3911,2022-051AJ,2025-05-24T21:42:11.095776,15.08838747,.0001277,53.2183,335.5293,96.2377,263.8760,0,U,52565,999,16798,.33223E-4,.241E-5,0
STARLINK-3938,2022-051AK,2025-05-24T19:09:10.300032,15.08837165,.0001336,53.2185,351.0059,89.4672,270.6473,0,U,52566,999,16776,.17682E-4,-.6E-7,0
STARLINK-3929,2022-051AL,2025-05-24T23:06:57.649536,15.08853539,.0001317,53.2178,335.2654,81.3753,278.7388,0,U,52567,999,16806,.41676E-4,.376E-5,0
STARLINK-3930,2022-051AM,2025-05-24T18:04:55.377408,15.08831771,.0001319,53.2183,336.2050,93.0386,267.0757,0,U,52568,999,16796,.52861E-5,-.204E-5,0
STARLINK-3927,2022-051AN,2025-05-24T19:50:54.404448,15.08835340,.0001335,53.2184,335.8773,94.4767,265.6378,0,U,52569,999,16797,-.52579E-5,-.372E-5,0
STARLINK-3901,2022-051AQ,2025-05-24T19:45:36.232128,15.08837764,.0001265,53.2182,335.8910,91.4745,268.6392,0,U,52574,999,16797,.48461E-4,.483E-5,0
STARLINK-3920,2022-051AR,2025-05-24T22:40:28.621344,15.08836336,.0001293,53.2186,335.3450,89.9848,270.1292,0,U,52575,999,16799,-.11138E-4,-.465E-5,0
STARLINK-3932,2022-051AS,2025-05-24T22:31:15.237120,15.08841340,.0001364,53.2178,335.3734,92.8116,267.3032,0,U,52576,999,16806,-.36959E-5,-.347E-5,0
STARLINK-3836,2022-051AT,2025-05-24T18:58:34.629312,15.08844364,.0001405,53.2186,351.0392,96.8514,263.2638,0,U,52577,999,16776,-.77655E-4,-.1524E-4,0
STARLINK-3833,2022-051AU,2025-05-24T19:03:52.456896,15.08834802,.0001273,53.2181,351.0212,87.9366,272.1772,0,U,52578,999,16776,.331E-4,.239E-5,0
STARLINK-3893,2022-051AV,2025-05-24T23:34:07.584672,15.08840135,.0001271,53.2187,350.1785,91.3272,268.7866,0,U,52579,999,16786,.25529E-4,.118E-5,0
STARLINK-3919,2022-051AW,2025-05-24T23:40:48.735552,15.08832797,.0001101,53.2188,350.1677,92.6454,267.4665,0,U,52580,999,16786,.34326E-4,.258E-5,0
STARLINK-3915,2022-051AX,2025-05-24T22:24:33.202368,15.08854282,.000141,53.2180,335.3916,99.9736,260.1415,0,U,52581,999,16799,.11208E-3,.1497E-4,0
